{
    "CCSDS_OMM_VERS": "3.0",
    "COMMENT": "GENERATED VIA SPACE-TRACK.ORG API",
    "CREATION_DATE": "2025-11-23T21:08:43",
    "ORIGINATOR": "18 SPCS",
    "OBJECT_NAME": "BEIDOU 14",
    "OBJECT_ID": "2012-050A",
    "CENTER_NAME": "EARTH",
    "REF_FRAME": "TEME",
    "TIME_SYSTEM": "UTC",
    "MEAN_ELEMENT_THEORY": "SGP4",
    "EPOCH": "2025-11-22T18:55:24.043008",
    "MEAN_MOTION": "1.86251463",
    "ECCENTRICITY": "0.00416790",
    "INCLINATION": "56.2570",
    "RA_OF_ASC_NODE": "69.7405",
    "ARG_OF_PERICENTER": "258.4343",
    "MEAN_ANOMALY": "101.0974",
    "EPHEMERIS_TYPE": "0",
    "CLASSIFICATION_TYPE": "U",
    "NORAD_CAT_ID": "38774",
    "ELEMENT_SET_NO": "999",
    "REV_AT_EPOCH": "7400",
    "BSTAR": "0.00000000000000",
    "MEAN_MOTION_DOT": "-0.00000033",
    "MEAN_MOTION_DDOT": "0.0000000000000",
    "SEMIMAJOR_AXIS": "27904.145",
    "PERIOD": "773.148",
    "APOAPSIS": "21642.311",
    "PERIAPSIS": "21409.708",
    "OBJECT_TYPE": "PAYLOAD",
    "RCS_SIZE": "LARGE",
    "COUNTRY_CODE": "PRC",
    "LAUNCH_DATE": "2012-09-18",
    "SITE": "XSC",
    "DECAY_DATE": null,
    "FILE": "4896238",
    "GP_ID": "303331268",
    "TLE_LINE0": "0 BEIDOU 14",
    "TLE_LINE1": "1 38774U 12050A   25326.78847272 -.00000033  00000-0  00000-0 0  9997",
    "TLE_LINE2": "2 38774  56.2570  69.7405 0041679 258.4343 101.0974  1.86251463 74002"
}